ORBCOMM-X [-]           
1 21576U 91050C   24072.17417336  .00000413  00000+0  13806-3 0  9991
2 21576  98.3995 140.9326 0004619 131.8371 228.3214 14.42394847715714
ORBCOMM FM01 [-]        
1 23545U 95017A   24072.20341976  .00003606  00000+0  49928-3 0  9997
2 23545  69.9670 135.8219 0008782 292.9537  67.0684 14.78838918544303
ORBCOMM FM02 [-]        
1 23546U 95017B   24072.21578223  .00005425  00000+0  75256-3 0  9990
2 23546  69.9697 155.1069 0010586 289.4682  70.5323 14.78435409543900
ORBCOMM FM08 [-]        
1 25112U 97084A   24071.96706380  .00002044  00000+0  65857-3 0  9995
2 25112  45.0149  60.3257 0006012  61.7602 298.3854 14.42135074374734
ORBCOMM FM10 [-]        
1 25113U 97084B   24071.97059437  .00001842  00000+0  59876-3 0  9990
2 25113  45.0161  62.1205 0004797  22.0089 338.0966 14.42057966374727
ORBCOMM FM11 [+]        
1 25114U 97084C   24071.98441637  .00001752  00000+0  57294-3 0  9991
2 25114  45.0145  62.0760 0005483  25.5525 334.5596 14.41943047374713
ORBCOMM FM12 [-]        
1 25115U 97084D   24071.24995730  .00001826  00000+0  59567-3 0  9996
2 25115  45.0151  65.2559 0004597  18.0940 342.0073 14.41910165374376
